{"type": "FeatureCollection", "features": [{"type": "Feature", "properties": {"norad_id": 36828, "name": "BEIDOU-2 IGSO-1 (C06)", "group": "beidou", "lat": -32.62287357476626, "lon": 137.09193175454442, "alt_km": 35836.043731711434, "timestamp": "2025-12-21T18:54:58.761688+00:00", "meta": {"OBJECT_NAME": "BEIDOU-2 IGSO-1 (C06)", "OBJECT_ID": "2010-036A", "EPOCH": "2025-12-20T21:47:26.739168", "MEAN_MOTION": 1.00282395, "ECCENTRICITY": 0.0051798, "INCLINATION": 54.2882, "RA_OF_ASC_NODE": 164.5739, "ARG_OF_PERICENTER": 215.2932, "MEAN_ANOMALY": 144.6604, "EPHEMERIS_TYPE": 0, "CLASSIFICATION_TYPE": "U", "NORAD_CAT_ID": 36828, "ELEMENT_SET_NO": 999, "REV_AT_EPOCH": 5631, "BSTAR": 0, "MEAN_MOTION_DOT": -5.5e-07, "MEAN_MOTION_DDOT": 0}, "tle": {"line1": "1 36828U 10036A   25354.90794837 -.00000055  00000+0  00000+0 0  9992", "line2": "2 36828  54.2882 164.5739 0051798 215.2932 144.6604  1.00282395 56317"}}, "geometry": {"type": "Point", "coordinates": [137.09193175454442, -32.62287357476626]}}, {"type": "Feature", "properties": {"norad_id": 37210, "name": "BEIDOU-2 G4 (C04)", "group": "beidou", "lat": 3.11151523721284, "lon": 174.33044382096392, "alt_km": 35784.648620048036, "timestamp": "2025-12-21T18:54:58.761711+00:00", "meta": {"OBJECT_NAME": "BEIDOU-2 G4 (C04)", "OBJECT_ID": "2010-057A", "EPOCH": "2025-12-21T13:57:28.384992", "MEAN_MOTION": 1.00271972, "ECCENTRICITY": 0.00104218, "INCLINATION": 3.2053, "RA_OF_ASC_NODE": 69.9056, "ARG_OF_PERICENTER": 193.0975, "MEAN_ANOMALY": 196.8487, "EPHEMERIS_TYPE": 0, "CLASSIFICATION_TYPE": "U", "NORAD_CAT_ID": 37210, "ELEMENT_SET_NO": 999, "REV_AT_EPOCH": 5551, "BSTAR": 0, "MEAN_MOTION_DOT": -9.1e-07, "MEAN_MOTION_DDOT": 0}, "tle": {"line1": "1 37210U 10057A   25355.58157853 -.00000091  00000+0  00000+0 0  9997", "line2": "2 37210   3.2053  69.9056 0010421 193.0975 196.8487  1.00271972 55513"}}, "geometry": {"type": "Point", "coordinates": [174.33044382096392, 3.11151523721284]}}, {"type": "Feature", "properties": {"norad_id": 37256, "name": "BEIDOU-2 IGSO-2 (C07)", "group": "beidou", "lat": -20.502404067145118, "lon": 113.76764264028188, "alt_km": 35583.48622849755, "timestamp": "2025-12-21T18:54:58.761726+00:00", "meta": {"OBJECT_NAME": "BEIDOU-2 IGSO-2 (C07)", "OBJECT_ID": "2010-068A", "EPOCH": "2025-12-21T13:27:35.185824", "MEAN_MOTION": 1.00283695, "ECCENTRICITY": 0.00485105, "INCLINATION": 47.8698, "RA_OF_ASC_NODE": 274.0408, "ARG_OF_PERICENTER": 216.3833, "MEAN_ANOMALY": 269.8083, "EPHEMERIS_TYPE": 0, "CLASSIFICATION_TYPE": "U", "NORAD_CAT_ID": 37256, "ELEMENT_SET_NO": 999, "REV_AT_EPOCH": 5501, "BSTAR": 0, "MEAN_MOTION_DOT": -1.86e-06, "MEAN_MOTION_DDOT": 0}, "tle": {"line1": "1 37256U 10068A   25355.56082391 -.00000186  00000+0  00000+0 0  9996", "line2": "2 37256  47.8698 274.0408 0048510 216.3833 269.8083  1.00283695 55017"}}, "geometry": {"type": "Point", "coordinates": [113.76764264028188, -20.502404067145118]}}, {"type": "Feature", "properties": {"norad_id": 37384, "name": "BEIDOU-2 IGSO-3 (C08)", "group": "beidou", "lat": 60.350733935448545, "lon": 109.98517276621119, "alt_km": 35827.723802349996, "timestamp": "2025-12-21T18:54:58.761738+00:00", "meta": {"OBJECT_NAME": "BEIDOU-2 IGSO-3 (C08)", "OBJECT_ID": "2011-013A", "EPOCH": "2025-12-21T13:47:18.522816", "MEAN_MOTION": 1.00268792, "ECCENTRICITY": 0.00353792, "INCLINATION": 62.1546, "RA_OF_ASC_NODE": 41.8324, "ARG_OF_PERICENTER": 187.6182, "MEAN_ANOMALY": 175.1134, "EPHEMERIS_TYPE": 0, "CLASSIFICATION_TYPE": "U", "NORAD_CAT_ID": 37384, "ELEMENT_SET_NO": 999, "REV_AT_EPOCH": 5388, "BSTAR": 0, "MEAN_MOTION_DOT": -1.61e-06, "MEAN_MOTION_DDOT": 0}, "tle": {"line1": "1 37384U 11013A   25355.57451994 -.00000161  00000+0  00000+0 0  9992", "line2": "2 37384  62.1546  41.8324 0035379 187.6182 175.1134  1.00268792 53884"}}, "geometry": {"type": "Point", "coordinates": [109.98517276621119, 60.350733935448545]}}, {"type": "Feature", "properties": {"norad_id": 37763, "name": "BEIDOU-2 IGSO-4 (C09)", "group": "beidou", "lat": -42.838076031777696, "lon": 125.89545335383212, "alt_km": 35599.890920040554, "timestamp": "2025-12-21T18:54:58.761750+00:00", "meta": {"OBJECT_NAME": "BEIDOU-2 IGSO-4 (C09)", "OBJECT_ID": "2011-038A", "EPOCH": "2025-12-21T10:06:26.864064", "MEAN_MOTION": 1.00280083, "ECCENTRICITY": 0.01491557, "INCLINATION": 54.5854, "RA_OF_ASC_NODE": 167.2693, "ARG_OF_PERICENTER": 230.0944, "MEAN_ANOMALY": 299.1265, "EPHEMERIS_TYPE": 0, "CLASSIFICATION_TYPE": "U", "NORAD_CAT_ID": 37763, "ELEMENT_SET_NO": 999, "REV_AT_EPOCH": 5286, "BSTAR": 0, "MEAN_MOTION_DOT": 5.9e-07, "MEAN_MOTION_DDOT": 0}, "tle": {"line1": "1 37763U 11038A   25355.42114426  .00000059  00000+0  00000+0 0  9995", "line2": "2 37763  54.5854 167.2693 0149155 230.0944 299.1265  1.00280083 52867"}}, "geometry": {"type": "Point", "coordinates": [125.89545335383212, -42.838076031777696]}}, {"type": "Feature", "properties": {"norad_id": 37948, "name": "BEIDOU-2 IGSO-5 (C10)", "group": "beidou", "lat": -9.968295816084872, "lon": 102.83035070310954, "alt_km": 35376.12327669812, "timestamp": "2025-12-21T18:54:58.761762+00:00", "meta": {"OBJECT_NAME": "BEIDOU-2 IGSO-5 (C10)", "OBJECT_ID": "2011-073A", "EPOCH": "2025-12-20T17:45:23.966208", "MEAN_MOTION": 1.00289634, "ECCENTRICITY": 0.01098505, "INCLINATION": 48.0053, "RA_OF_ASC_NODE": 273.7608, "ARG_OF_PERICENTER": 222.3057, "MEAN_ANOMALY": 313.2909, "EPHEMERIS_TYPE": 0, "CLASSIFICATION_TYPE": "U", "NORAD_CAT_ID": 37948, "ELEMENT_SET_NO": 999, "REV_AT_EPOCH": 5134, "BSTAR": 0, "MEAN_MOTION_DOT": -1.51e-06, "MEAN_MOTION_DDOT": 0}, "tle": {"line1": "1 37948U 11073A   25354.73986072 -.00000151  00000+0  00000+0 0  9990", "line2": "2 37948  48.0053 273.7608 0109850 222.3057 313.2909  1.00289634 51343"}}, "geometry": {"type": "Point", "coordinates": [102.83035070310954, -9.968295816084872]}}, {"type": "Feature", "properties": {"norad_id": 38091, "name": "BEIDOU-2 G5 (C05)", "group": "beidou", "lat": 0.16158916667879536, "lon": 73.20910101384146, "alt_km": 35822.99688919761, "timestamp": "2025-12-21T18:54:58.761774+00:00", "meta": {"OBJECT_NAME": "BEIDOU-2 G5 (C05)", "OBJECT_ID": "2012-008A", "EPOCH": "2025-12-19T16:03:31.750272", "MEAN_MOTION": 1.00268606, "ECCENTRICITY": 0.0012969, "INCLINATION": 3.1258, "RA_OF_ASC_NODE": 70.6861, "ARG_OF_PERICENTER": 231.3522, "MEAN_ANOMALY": 86.1393, "EPHEMERIS_TYPE": 0, "CLASSIFICATION_TYPE": "U", "NORAD_CAT_ID": 38091, "ELEMENT_SET_NO": 999, "REV_AT_EPOCH": 5056, "BSTAR": 0, "MEAN_MOTION_DOT": 7.9e-07, "MEAN_MOTION_DDOT": 0}, "tle": {"line1": "1 38091U 12008A   25353.66911748  .00000079  00000+0  00000+0 0  9996", "line2": "2 38091   3.1258  70.6861 0012969 231.3522  86.1393  1.00268606 50560"}}, "geometry": {"type": "Point", "coordinates": [73.20910101384146, 0.16158916667879536]}}, {"type": "Feature", "properties": {"norad_id": 38250, "name": "BEIDOU-2 M3 (C11)", "group": "beidou", "lat": -34.084170859988006, "lon": 158.07381011600813, "alt_km": 21491.55288653967, "timestamp": "2025-12-21T18:54:58.761786+00:00", "meta": {"OBJECT_NAME": "BEIDOU-2 M3 (C11)", "OBJECT_ID": "2012-018A", "EPOCH": "2025-12-20T22:02:43.406880", "MEAN_MOTION": 1.86230123, "ECCENTRICITY": 0.00241142, "INCLINATION": 55.9133, "RA_OF_ASC_NODE": 310.8827, "ARG_OF_PERICENTER": 275.2065, "MEAN_ANOMALY": 84.51, "EPHEMERIS_TYPE": 0, "CLASSIFICATION_TYPE": "U", "NORAD_CAT_ID": 38250, "ELEMENT_SET_NO": 999, "REV_AT_EPOCH": 9262, "BSTAR": 0, "MEAN_MOTION_DOT": -6.6e-07, "MEAN_MOTION_DDOT": 0}, "tle": {"line1": "1 38250U 12018A   25354.91855795 -.00000066  00000+0  00000+0 0  9999", "line2": "2 38250  55.9133 310.8827 0024114 275.2065  84.5100  1.86230123 92627"}}, "geometry": {"type": "Point", "coordinates": [158.07381011600813, -34.084170859988006]}}, {"type": "Feature", "properties": {"norad_id": 38251, "name": "BEIDOU-2 M4 (C12)", "group": "beidou", "lat": -55.789521010035784, "lon": -142.79390736639206, "alt_km": 21492.047278085483, "timestamp": "2025-12-21T18:54:58.761798+00:00", "meta": {"OBJECT_NAME": "BEIDOU-2 M4 (C12)", "OBJECT_ID": "2012-018B", "EPOCH": "2025-12-20T20:24:53.726112", "MEAN_MOTION": 1.86229788, "ECCENTRICITY": 0.00153189, "INCLINATION": 55.8144, "RA_OF_ASC_NODE": 310.113, "ARG_OF_PERICENTER": 278.7848, "MEAN_ANOMALY": 81.0336, "EPHEMERIS_TYPE": 0, "CLASSIFICATION_TYPE": "U", "NORAD_CAT_ID": 38251, "ELEMENT_SET_NO": 999, "REV_AT_EPOCH": 9262, "BSTAR": 0, "MEAN_MOTION_DOT": -6.6e-07, "MEAN_MOTION_DDOT": 0}, "tle": {"line1": "1 38251U 12018B   25354.85062183 -.00000066  00000+0  00000+0 0  9994", "line2": "2 38251  55.8144 310.1130 0015318 278.7848  81.0336  1.86229788 92620"}}, "geometry": {"type": "Point", "coordinates": [-142.79390736639206, -55.789521010035784]}}, {"type": "Feature", "properties": {"norad_id": 38775, "name": "BEIDOU-2 M6 (C14)", "group": "beidou", "lat": 54.405445716520724, "lon": -179.3300345542258, "alt_km": 21537.082750376478, "timestamp": "2025-12-21T18:54:58.761809+00:00", "meta": {"OBJECT_NAME": "BEIDOU-2 M6 (C14)", "OBJECT_ID": "2012-050B", "EPOCH": "2025-12-21T02:21:46.465344", "MEAN_MOTION": 1.86230924, "ECCENTRICITY": 0.00113708, "INCLINATION": 56.3853, "RA_OF_ASC_NODE": 68.7901, "ARG_OF_PERICENTER": 343.4825, "MEAN_ANOMALY": 16.5255, "EPHEMERIS_TYPE": 0, "CLASSIFICATION_TYPE": "U", "NORAD_CAT_ID": 38775, "ELEMENT_SET_NO": 999, "REV_AT_EPOCH": 8999, "BSTAR": 0, "MEAN_MOTION_DOT": -3.7e-07, "MEAN_MOTION_DDOT": 0}, "tle": {"line1": "1 38775U 12050B   25355.09845446 -.00000037  00000+0  00000+0 0  9997", "line2": "2 38775  56.3853  68.7901 0011370 343.4825  16.5255  1.86230924 89998"}}, "geometry": {"type": "Point", "coordinates": [-179.3300345542258, 54.405445716520724]}}]}